ONEWEB-0716             
1 55177U 23004AP  25061.63342186  .00000003  00000+0 -25122-4 0  9990
2 55177  87.9024  99.8271 0002153 100.4002 259.7372 13.17647647105480
ONEWEB-0717             
1 55178U 23004AQ  25061.54060420  .00000040  00000+0  70488-4 0  9994
2 55178  87.9021  99.8058 0001141  92.7539 267.3723 13.17648308105520
ONEWEB-0719             
1 55179U 23004AR  25061.55072903  .00000015  00000+0  42140-5 0  9992
2 55179  87.9021  99.7886 0002029 102.7949 257.3410 13.17646815105479
ONEWEB-0530             
1 55796U 23029A   25061.35292680  .00000087  00000+0  18148-3 0  9996
2 55796  87.9321   8.3711 0001301  89.7208 270.4074 13.20770966 98869
ONEWEB-0534             
1 55797U 23029B   25061.87060284  .00000093  00000+0  19588-3 0  9993
2 55797  87.9323   8.2759 0001944  83.3537 276.7817 13.20772373 99624
ONEWEB-0556             
1 55798U 23029C   25061.34660969  .00000044  00000+0  76534-4 0  9993
2 55798  87.9320   8.3722 0001819 107.1228 253.0104 13.20770512 98861
ONEWEB-0562             
1 55799U 23029D   25061.86428308  .00000132  00000+0  29213-3 0  9999
2 55799  87.9323   8.2619 0001254 110.2816 249.8452 13.20770879 99619
ONEWEB-0563             
1 55800U 23029E   25061.85797300  .00000073  00000+0  14765-3 0  9992
2 55800  87.9323   8.2778 0002176  85.4525 274.6857 13.20771295 99609
